OBJECT_NAME,OBJECT_ID,EPOCH,MEAN_MOTION,ECCENTRICITY,INCLINATION,RA_OF_ASC_NODE,ARG_OF_PERICENTER,MEAN_ANOMALY,EPHEMERIS_TYPE,CLASSIFICATION_TYPE,NORAD_CAT_ID,ELEMENT_SET_NO,REV_AT_EPOCH,BSTAR,MEAN_MOTION_DOT,MEAN_MOTION_DDOT
STARLINK-32106,2024-086J,2026-06-25T06:28:56.080992,15.27584882,.00010735,43.0003,164.6875,271.8980,88.1749,0,U,59690,999,12065,.48375005E-4,.107E-4,0
STARLINK-32090,2024-086K,2026-06-25T07:00:21.701376,15.27583927,.00011098,42.9989,176.0874,273.6609,86.4116,0,U,59691,999,12052,.33768505E-4,.667E-5,0
STARLINK-32088,2024-086M,2026-06-25T06:40:02.499744,15.27579998,.00011215,43.0031,164.7478,274.3004,85.7719,0,U,59693,999,12065,.13154123E-4,.1E-5,0
STARLINK-32107,2024-086N,2026-06-25T06:42:33.543360,15.27581802,.00010195,42.9982,172.5387,273.4783,86.5952,0,U,59694,999,12056,.30665301E-4,.582E-5,0
STARLINK-32104,2024-086P,2026-06-25T06:41:23.263008,15.27581177,.00010969,42.9994,169.0026,280.4021,79.6707,0,U,59695,999,12060,.32226012E-4,.625E-5,0
STARLINK-32094,2024-086Q,2026-06-25T11:30:34.463520,15.27583389,.00011213,43.0007,171.4577,270.1744,89.8979,0,U,59696,999,12059,.36510628E-4,.743E-5,0
STARLINK-32099,2024-086R,2026-06-24T17:17:30.352416,15.27574540,.0001453,43.0013,175.2319,279.6803,80.3885,0,U,59697,999,12048,.91786249E-4,.2264E-4,0
STARLINK-32096,2024-086S,2026-06-25T06:11:06.564768,15.27580617,.00015873,43.0028,172.3767,268.1164,91.9506,0,U,59698,999,12056,.42731769E-4,.914E-5,0
STARLINK-32102,2024-086T,2026-06-24T17:26:45.158784,15.27588002,.00018589,43.0034,175.2781,261.9277,98.1364,0,U,59699,999,12048,.5025011E-3,.13595E-3,0
STARLINK-32092,2024-086U,2026-06-25T06:25:54.558048,15.27575167,.0001207,43.0010,172.4519,263.4088,96.6626,0,U,59700,999,12056,.60808418E-4,.1411E-4,0
STARLINK-32093,2024-086V,2026-06-25T00:05:35.107584,15.27579482,.00012221,43.0012,173.9103,269.8282,90.2430,0,U,59701,999,12052,.48284587E-4,.1067E-4,0
STARLINK-32087,2024-086W,2026-06-25T06:05:32.684928,15.27597272,.00010119,43.0014,172.3474,263.0445,97.0292,0,U,59702,999,12056,-.31373261E-4,-.1126E-4,0
STARLINK-32086,2024-086X,2026-06-25T10:22:07.004064,15.27579596,.00010536,43.0014,171.1075,271.8875,88.1856,0,U,59703,999,12059,.3326185E-4,.653E-5,0
STARLINK-32098,2024-086Y,2026-06-24T16:29:36.393792,15.27576969,.00010883,42.9999,175.8332,279.4330,80.6399,0,U,59704,999,12047,.17160681E-4,.21E-5,0
STARLINK-11107 [DTC],2024-088A,2026-06-25T05:00:34.621056,15.69693663,.00014388,53.1589,155.9323,110.9873,249.1299,0,U,59708,999,12314,.5325247E-5,.56E-6,0
STARLINK-11088 [DTC],2024-088B,2026-06-25T04:46:35.890464,15.69665335,.00004464,53.1559,156.5969,112.9138,247.1927,0,U,59709,999,12315,.25692292E-3,.30595E-3,0
STARLINK-11092 [DTC],2024-088C,2026-06-25T04:39:31.411584,15.69706964,.00011079,53.1594,156.5649,78.9952,281.1190,0,U,59710,999,12315,.511774E-6,-.527E-5,0
STARLINK-11082 [DTC],2024-088D,2026-06-25T04:32:27.499488,15.69709058,.00010919,53.1595,156.5296,94.1729,265.9413,0,U,59711,999,12315,.6847635E-5,.241E-5,0
STARLINK-11108 [DTC],2024-088E,2026-06-25T05:57:04.162176,15.69724977,.00009938,53.1585,156.1836,103.5927,256.5202,0,U,59712,999,12316,.26420031E-4,.2615E-4,0
STARLINK-11100 [DTC],2024-088F,2026-06-25T05:50:00.330432,15.69712977,.00010087,53.1585,156.1488,77.5979,282.5152,0,U,59713,999,12316,.13530243E-4,.1051E-4,0
STARLINK-11094 [DTC],2024-088G,2026-06-25T05:42:56.847744,15.69714738,.00009491,53.1565,156.1238,88.0636,272.0490,0,U,59714,999,12316,.54901203E-4,.6069E-4,0
STARLINK-11101 [DTC],2024-088H,2026-06-25T05:28:49.503936,15.69702755,.00013439,53.1595,156.0516,121.2339,238.8810,0,U,59715,999,12316,.11195506E-4,.767E-5,0
STARLINK-11099 [DTC],2024-088J,2026-06-25T05:35:53.187936,15.69709086,.00008183,53.1577,156.0863,88.5982,271.5129,0,U,59716,999,12316,.8815683E-5,.48E-5,0
STARLINK-11084 [DTC],2024-088K,2026-06-25T05:21:44.962848,15.69721414,.00011472,53.1584,156.0183,77.6754,282.4392,0,U,59717,999,12316,-.8242058E-5,-.1588E-4,0
STARLINK-11103 [DTC],2024-088L,2026-06-25T05:14:41.556192,15.69702594,.00012391,53.1574,155.9872,59.3603,300.7537,0,U,59718,999,12316,.10745939E-4,.713E-5,0
STARLINK-11096 [DTC],2024-088M,2026-06-25T04:53:39.318720,15.69699364,.00011102,53.1592,156.6204,102.7339,257.3803,0,U,59719,999,12315,-.1767415E-5,-.802E-5,0
STARLINK-11095 [DTC],2024-088N,2026-06-25T05:07:37.640640,15.69704225,.00010325,53.1587,155.9516,88.6084,271.5052,0,U,59720,999,12316,.3898391E-5,-.116E-5,0
STARLINK-31834,2024-088P,2026-06-25T12:38:20.690304,15.31711467,.00013933,53.1604,358.9384,88.8111,271.3050,0,U,59721,999,12037,.93632731E-4,.2542E-4,0
STARLINK-31843,2024-088Q,2026-06-25T14:00:01.999872,15.31705252,.00011254,53.1593,358.7235,95.5862,191.7547,0,U,59722,999,585,.14233482E-3,.4055E-4,0
STARLINK-31766,2024-088R,2026-06-25T12:58:52.314528,15.30195210,.00006745,53.1592,359.0251,89.3874,270.7204,0,U,59723,999,12019,.2709036E-4,.444E-5,0
STARLINK-31836,2024-088S,2026-06-25T13:11:49.703712,15.31680850,.00011926,53.1593,358.3748,102.2214,257.8922,0,U,59724,999,12020,.17889017E-3,.5187E-4,0
STARLINK-31820,2024-088T,2026-06-24T21:45:39.304224,15.31704190,.00015586,53.1573,1.4690,91.3433,268.7747,0,U,59725,999,12010,.46692402E-4,.1084E-4,0
STARLINK-31642,2024-088U,2026-06-25T11:58:00.232320,15.31710025,.00014188,53.1579,358.7629,92.0182,268.0982,0,U,59726,999,12019,.5707061E-4,.1407E-4,0
STARLINK-31827,2024-088V,2026-06-24T19:18:03.559968,15.31711318,.00012034,53.1609,2.2476,85.2142,274.8997,0,U,59727,999,12020,.98472947E-4,.2693E-4,0
STARLINK-31472,2024-090A,2026-06-24T14:49:48.207648,15.27580248,.00012604,43.0023,299.6012,257.4876,102.5834,0,U,59730,999,11979,.37892719E-4,.781E-5,0
STARLINK-31817,2024-090B,2026-06-24T01:50:39.893568,15.27570465,.00019736,43.0065,302.4284,268.2862,91.7763,0,U,59731,999,11971,.16186583E-3,.4193E-4,0
STARLINK-31833,2024-090D,2026-06-25T10:00:02.232864,15.27589078,.00011611,42.9992,295.2757,270.4730,89.5989,0,U,59733,999,11991,.17903944E-3,.4669E-4,0
STARLINK-31849,2024-090E,2026-06-24T14:54:54.094752,15.27579038,.00011135,43.0004,292.7097,272.4510,87.6214,0,U,59734,999,11987,.9949907E-5,.12E-6,0
STARLINK-31661,2024-090F,2026-06-24T14:38:14.692128,15.27584600,.00019157,43.0006,292.6225,281.9685,78.0951,0,U,59735,999,11987,.4873715E-4,.1079E-4,0
STARLINK-31707,2024-090G,2026-06-24T14:44:15.578880,15.27579299,.0001556,43.0026,299.5768,269.8039,90.2634,0,U,59736,999,11979,.26748026E-4,.474E-5,0
STARLINK-31821,2024-090H,2026-06-24T15:00:54.663552,15.27582703,.00015482,43.0015,299.6642,276.9336,83.1340,0,U,59737,999,11979,.10850823E-4,.36E-6,0
STARLINK-31819,2024-090J,2026-06-24T19:35:58.029504,15.27590239,.0001271,43.0018,298.5128,265.4122,94.6585,0,U,59738,999,11982,.94603525E-4,.2343E-4,0
STARLINK-31726,2024-090K,2026-06-24T01:45:03.756960,15.27596727,.00018721,43.0046,302.3949,270.3746,89.6892,0,U,59739,999,11971,.87420368E-4,.2145E-4,0
STARLINK-31759,2024-090L,2026-06-24T20:09:17.633088,15.27569819,.00005405,43.0009,298.6860,276.9331,83.1459,0,U,59740,999,11982,-.69065301E-4,-.2161E-4,0
STARLINK-31818,2024-090M,2026-06-24T15:15:42.700032,15.27578494,.00011421,43.0016,299.7352,274.5872,85.4849,0,U,59741,999,11979,.14611453E-4,.14E-5,0
STARLINK-31816,2024-090N,2026-06-23T16:03:42.723936,15.27580733,.00011555,43.0013,305.3603,269.6911,90.3808,0,U,59742,999,11962,.38672975E-4,.802E-5,0
STARLINK-31809,2024-090P,2026-06-24T00:36:23.378112,15.27594666,.00013273,43.0025,295.9742,264.2102,95.8598,0,U,59743,999,11978,-.1228292E-3,-.3642E-4,0
STARLINK-31779,2024-090Q,2026-06-24T01:56:12.533568,15.27575863,.00014962,43.0019,302.4476,246.6050,113.4645,0,U,59744,999,11971,.1112515E-5,-.232E-5,0
STARLINK-31805,2024-090R,2026-06-24T18:55:14.731680,15.27580727,.00047126,43.0152,298.3013,267.9650,92.0662,0,U,59745,999,11982,.65450946E-4,.1538E-4,0
STARLINK-31681,2024-090S,2026-06-24T14:49:20.795520,15.27590238,.00012359,43.0024,292.6793,268.1838,91.8872,0,U,59746,999,11987,-.14615024E-4,-.664E-5,0
STARLINK-31636,2024-090T,2026-06-24T19:15:36.876096,15.27587465,.00022253,43.0065,298.4095,284.0219,76.0385,0,U,59747,999,11982,.26286264E-4,.461E-5,0
STARLINK-31640,2024-090U,2026-06-24T14:57:12.226752,15.27596974,.00013192,43.0004,299.6402,268.2985,91.7715,0,U,59748,999,11979,-.80301062E-4,-.2472E-4,0
STARLINK-31677,2024-090V,2026-06-24T15:21:15.690816,15.27580584,.00013094,43.0004,299.7625,278.0628,82.0076,0,U,59749,999,11978,.8688972E-5,-.23E-6,0
STARLINK-31783,2024-090W,2026-06-24T18:40:40.037088,15.27591681,.0001192,43.0025,299.0832,276.6040,83.4676,0,U,59750,999,11980,.6003238E-5,-.97E-6,0
STARLINK-31808,2024-090X,2026-06-24T18:49:43.032576,15.27578522,.00008687,43.0032,298.2716,283.1810,76.8945,0,U,59751,999,11981,.37441616E-4,.768E-5,0
STARLINK-31822,2024-090Y,2026-06-24T14:38:42.724608,15.27575518,.00014367,43.0015,299.5411,243.1393,116.9312,0,U,59752,999,11978,-.9423247E-5,-.521E-5,0
STARLINK-11118 [DTC],2024-091B,2026-06-23T22:05:52.576224,15.69702157,.00008915,53.1558,42.9132,42.1110,317.9976,0,U,59754,999,12219,.4047545E-5,-.98E-6,0
STARLINK-11132 [DTC],2024-091C,2026-06-24T23:50:21.378336,15.69698770,.00009894,53.1606,37.5129,99.9427,260.1703,0,U,59755,999,12236,.24729312E-4,.2407E-4,0
STARLINK-11131 [DTC],2024-091D,2026-06-24T23:43:17.362560,15.69712671,.00010695,53.1620,37.4813,96.0354,264.0786,0,U,59756,999,12236,.1038173E-4,.669E-5,0
STARLINK-11114 [DTC],2024-091E,2026-06-24T23:36:12.849120,15.69764494,.00003433,53.1594,37.4687,125.6451,234.4599,0,U,59757,999,12236,-.84416503E-4,-.10824E-3,0
STARLINK-11105 [DTC],2024-091F,2026-06-24T23:29:10.034304,15.69711202,.00009841,53.1590,37.4354,79.5502,280.5627,0,U,59758,999,12236,.12050397E-4,.872E-5,0
STARLINK-11097 [DTC],2024-091G,2026-06-25T05:28:49.370880,15.69729114,.00009273,53.1591,36.1253,85.7648,274.3476,0,U,59759,999,12240,-.20547275E-4,-.3079E-4,0
STARLINK-11098 [DTC],2024-091H,2026-06-24T21:43:21.086688,15.69714560,.00013508,53.1578,37.6627,83.7778,276.3394,0,U,59760,999,12235,.40651958E-4,.4339E-4,0
